[{"OBJECT_NAME":"UNKNOWN","OBJECT_ID":"","EPOCH":"2026-03-03T13:14:20.850144","MEAN_MOTION":14.29774592,"ECCENTRICITY":0.004637,"INCLINATION":98.533,"RA_OF_ASC_NODE":286.7563,"ARG_OF_PERICENTER":86.0738,"MEAN_ANOMALY":274.5744,"EPHEMERIS_TYPE":0,"CLASSIFICATION_TYPE":"U","NORAD_CAT_ID":87204,"ELEMENT_SET_NO":999,"REV_AT_EPOCH":63698,"BSTAR":0.0010039,"MEAN_MOTION_DOT":2.566e-5,"MEAN_MOTION_DDOT":0},{"OBJECT_NAME":"UNKNOWN","OBJECT_ID":"","EPOCH":"2026-02-24T19:39:16.252704","MEAN_MOTION":14.47142657,"ECCENTRICITY":0.005159,"INCLINATION":99.0886,"RA_OF_ASC_NODE":65.9782,"ARG_OF_PERICENTER":299.6495,"MEAN_ANOMALY":186.2543,"EPHEMERIS_TYPE":0,"CLASSIFICATION_TYPE":"U","NORAD_CAT_ID":87211,"ELEMENT_SET_NO":999,"REV_AT_EPOCH":71848,"BSTAR":0.00093562,"MEAN_MOTION_DOT":3.419e-5,"MEAN_MOTION_DDOT":0},{"OBJECT_NAME":"UNKNOWN","OBJECT_ID":"","EPOCH":"2026-03-02T11:30:42.301728","MEAN_MOTION":13.84252622,"ECCENTRICITY":0.0068963,"INCLINATION":100.333,"RA_OF_ASC_NODE":72.9871,"ARG_OF_PERICENTER":50.2422,"MEAN_ANOMALY":310.4777,"EPHEMERIS_TYPE":0,"CLASSIFICATION_TYPE":"U","NORAD_CAT_ID":87214,"ELEMENT_SET_NO":999,"REV_AT_EPOCH":61127,"BSTAR":0.0016007,"MEAN_MOTION_DOT":1.769e-5,"MEAN_MOTION_DDOT":0},{"OBJECT_NAME":"UNKNOWN","OBJECT_ID":"","EPOCH":"2026-03-03T15:28:02.212320","MEAN_MOTION":13.91836471,"ECCENTRICITY":0.0103884,"INCLINATION":99.2428,"RA_OF_ASC_NODE":122.9123,"ARG_OF_PERICENTER":66.0612,"MEAN_ANOMALY":85.0544,"EPHEMERIS_TYPE":0,"CLASSIFICATION_TYPE":"U","NORAD_CAT_ID":87237,"ELEMENT_SET_NO":999,"REV_AT_EPOCH":62301,"BSTAR":0.00031359,"MEAN_MOTION_DOT":3.73e-6,"MEAN_MOTION_DDOT":0},{"OBJECT_NAME":"UNKNOWN","OBJECT_ID":"","EPOCH":"2026-03-02T06:58:13.345536","MEAN_MOTION":14.53766017,"ECCENTRICITY":0.0019592,"INCLINATION":82.8753,"RA_OF_ASC_NODE":15.2057,"ARG_OF_PERICENTER":136.7236,"MEAN_ANOMALY":223.5506,"EPHEMERIS_TYPE":0,"CLASSIFICATION_TYPE":"U","NORAD_CAT_ID":87239,"ELEMENT_SET_NO":999,"REV_AT_EPOCH":63942,"BSTAR":0.0028932,"MEAN_MOTION_DOT":0.00012193,"MEAN_MOTION_DDOT":0},{"OBJECT_NAME":"UNKNOWN","OBJECT_ID":"","EPOCH":"2026-03-03T08:35:59.743968","MEAN_MOTION":14.16673893,"ECCENTRICITY":0.0425405,"INCLINATION":65.6456,"RA_OF_ASC_NODE":192.0662,"ARG_OF_PERICENTER":80.7492,"MEAN_ANOMALY":315.3707,"EPHEMERIS_TYPE":0,"CLASSIFICATION_TYPE":"U","NORAD_CAT_ID":87245,"ELEMENT_SET_NO":999,"REV_AT_EPOCH":62562,"BSTAR":0.00086966,"MEAN_MOTION_DOT":4.151e-5,"MEAN_MOTION_DDOT":0},{"OBJECT_NAME":"UNKNOWN","OBJECT_ID":"","EPOCH":"2026-03-03T06:46:45.212736","MEAN_MOTION":14.22876485,"ECCENTRICITY":0.0420224,"INCLINATION":65.7561,"RA_OF_ASC_NODE":19.6125,"ARG_OF_PERICENTER":30.9386,"MEAN_ANOMALY":331.574,"EPHEMERIS_TYPE":0,"CLASSIFICATION_TYPE":"U","NORAD_CAT_ID":87271,"ELEMENT_SET_NO":999,"REV_AT_EPOCH":62382,"BSTAR":0.0034798,"MEAN_MOTION_DOT":0.00019606,"MEAN_MOTION_DDOT":0},{"OBJECT_NAME":"UNKNOWN","OBJECT_ID":"","EPOCH":"2026-03-01T22:44:24.477792","MEAN_MOTION":13.48637859,"ECCENTRICITY":0.0128378,"INCLINATION":64.6158,"RA_OF_ASC_NODE":39.4575,"ARG_OF_PERICENTER":245.8443,"MEAN_ANOMALY":112.9129,"EPHEMERIS_TYPE":0,"CLASSIFICATION_TYPE":"U","NORAD_CAT_ID":87280,"ELEMENT_SET_NO":999,"REV_AT_EPOCH":54453,"BSTAR":0.00059571,"MEAN_MOTION_DOT":3.07e-6,"MEAN_MOTION_DDOT":0},{"OBJECT_NAME":"UNKNOWN","OBJECT_ID":"","EPOCH":"2026-03-03T00:43:25.912128","MEAN_MOTION":14.19592246,"ECCENTRICITY":0.0427596,"INCLINATION":65.8962,"RA_OF_ASC_NODE":291.6039,"ARG_OF_PERICENTER":316.3933,"MEAN_ANOMALY":40.4079,"EPHEMERIS_TYPE":0,"CLASSIFICATION_TYPE":"U","NORAD_CAT_ID":87293,"ELEMENT_SET_NO":999,"REV_AT_EPOCH":62538,"BSTAR":0.001146,"MEAN_MOTION_DOT":6.016e-5,"MEAN_MOTION_DDOT":0},{"OBJECT_NAME":"UNKNOWN","OBJECT_ID":"","EPOCH":"2026-03-02T10:17:45.763296","MEAN_MOTION":13.9977284,"ECCENTRICITY":0.0026566,"INCLINATION":100.0987,"RA_OF_ASC_NODE":56.9516,"ARG_OF_PERICENTER":80.1947,"MEAN_ANOMALY":280.2212,"EPHEMERIS_TYPE":0,"CLASSIFICATION_TYPE":"U","NORAD_CAT_ID":87300,"ELEMENT_SET_NO":999,"REV_AT_EPOCH":62426,"BSTAR":0.0013048,"MEAN_MOTION_DOT":1.865e-5,"MEAN_MOTION_DDOT":0},{"OBJECT_NAME":"UNKNOWN","OBJECT_ID":"","EPOCH":"2026-02-24T01:40:01.734528","MEAN_MOTION":14.75775931,"ECCENTRICITY":0.0016746,"INCLINATION":74.0188,"RA_OF_ASC_NODE":177.3609,"ARG_OF_PERICENTER":130.9964,"MEAN_ANOMALY":229.2662,"EPHEMERIS_TYPE":0,"CLASSIFICATION_TYPE":"U","NORAD_CAT_ID":87304,"ELEMENT_SET_NO":999,"REV_AT_EPOCH":65729,"BSTAR":0.00032596,"MEAN_MOTION_DOT":2.205e-5,"MEAN_MOTION_DDOT":0},{"OBJECT_NAME":"UNKNOWN","OBJECT_ID":"","EPOCH":"2026-03-03T14:35:07.859040","MEAN_MOTION":13.70451952,"ECCENTRICITY":0.042098,"INCLINATION":66.5908,"RA_OF_ASC_NODE":251.3198,"ARG_OF_PERICENTER":2.9412,"MEAN_ANOMALY":357.3983,"EPHEMERIS_TYPE":0,"CLASSIFICATION_TYPE":"U","NORAD_CAT_ID":87320,"ELEMENT_SET_NO":999,"REV_AT_EPOCH":60482,"BSTAR":0.00086995,"MEAN_MOTION_DOT":1.369e-5,"MEAN_MOTION_DDOT":0},{"OBJECT_NAME":"UNKNOWN","OBJECT_ID":"","EPOCH":"2026-03-03T14:52:36.871680","MEAN_MOTION":14.10178845,"ECCENTRICITY":0.0067348,"INCLINATION":90.0062,"RA_OF_ASC_NODE":271.7008,"ARG_OF_PERICENTER":343.6732,"MEAN_ANOMALY":16.2282,"EPHEMERIS_TYPE":0,"CLASSIFICATION_TYPE":"U","NORAD_CAT_ID":87334,"ELEMENT_SET_NO":999,"REV_AT_EPOCH":39803,"BSTAR":0.010803,"MEAN_MOTION_DOT":0.00019567,"MEAN_MOTION_DDOT":0},{"OBJECT_NAME":"UNKNOWN","OBJECT_ID":"","EPOCH":"2026-03-03T13:05:48.478272","MEAN_MOTION":14.10340147,"ECCENTRICITY":0.0085805,"INCLINATION":89.9947,"RA_OF_ASC_NODE":267.8868,"ARG_OF_PERICENTER":324.0485,"MEAN_ANOMALY":35.4945,"EPHEMERIS_TYPE":0,"CLASSIFICATION_TYPE":"U","NORAD_CAT_ID":87335,"ELEMENT_SET_NO":999,"REV_AT_EPOCH":39835,"BSTAR":0.011474,"MEAN_MOTION_DOT":0.00021125,"MEAN_MOTION_DDOT":0},{"OBJECT_NAME":"UNKNOWN","OBJECT_ID":"","EPOCH":"2026-03-03T12:43:34.156416","MEAN_MOTION":13.96757705,"ECCENTRICITY":0.0060056,"INCLINATION":82.7536,"RA_OF_ASC_NODE":356.3623,"ARG_OF_PERICENTER":95.6642,"MEAN_ANOMALY":265.1378,"EPHEMERIS_TYPE":0,"CLASSIFICATION_TYPE":"U","NORAD_CAT_ID":87405,"ELEMENT_SET_NO":999,"REV_AT_EPOCH":62243,"BSTAR":0.0021939,"MEAN_MOTION_DOT":3.107e-5,"MEAN_MOTION_DDOT":0},{"OBJECT_NAME":"UNKNOWN","OBJECT_ID":"","EPOCH":"2026-03-02T13:58:15.344256","MEAN_MOTION":14.30578848,"ECCENTRICITY":0.0070372,"INCLINATION":65.7822,"RA_OF_ASC_NODE":117.9152,"ARG_OF_PERICENTER":258.2435,"MEAN_ANOMALY":253.7615,"EPHEMERIS_TYPE":0,"CLASSIFICATION_TYPE":"U","NORAD_CAT_ID":87426,"ELEMENT_SET_NO":999,"REV_AT_EPOCH":63400,"BSTAR":0.0019434,"MEAN_MOTION_DOT":5.13e-5,"MEAN_MOTION_DDOT":0},{"OBJECT_NAME":"UNKNOWN","OBJECT_ID":"","EPOCH":"2026-03-03T10:41:22.956576","MEAN_MOTION":13.90865565,"ECCENTRICITY":0.0064081,"INCLINATION":100.4516,"RA_OF_ASC_NODE":283.9416,"ARG_OF_PERICENTER":355.1024,"MEAN_ANOMALY":4.9496,"EPHEMERIS_TYPE":0,"CLASSIFICATION_TYPE":"U","NORAD_CAT_ID":87448,"ELEMENT_SET_NO":999,"REV_AT_EPOCH":62045,"BSTAR":0.0012352,"MEAN_MOTION_DOT":1.518e-5,"MEAN_MOTION_DDOT":0}]
